{
    "links": {
        "self": "http://www.neowsapp.com/rest/v1/neo/3553701?api_key=iIulBulltgU6a56xZRHN4H3l9WmuAYTsLGpBGhQ2"
    },
    "id": "3553701",
    "neo_reference_id": "3553701",
    "name": "(2010 XF64)",
    "designation": "2010 XF64",
    "nasa_jpl_url": "http://ssd.jpl.nasa.gov/sbdb.cgi?sstr=3553701",
    "absolute_magnitude_h": 26.6,
    "estimated_diameter": {
        "kilometers": {
            "estimated_diameter_min": 0.0127219879,
            "estimated_diameter_max": 0.0284472297
        },
        "meters": {
            "estimated_diameter_min": 12.7219878539,
            "estimated_diameter_max": 28.4472296503
        },
        "miles": {
            "estimated_diameter_min": 0.0079050743,
            "estimated_diameter_max": 0.0176762835
        },
        "feet": {
            "estimated_diameter_min": 41.7388066307,
            "estimated_diameter_max": 93.330808926
        }
    },
    "is_potentially_hazardous_asteroid": false,
    "close_approach_data": [
        {
            "close_approach_date": "2010-12-18",
            "close_approach_date_full": "2010-Dec-18 09:43",
            "epoch_date_close_approach": 1292665380000,
            "relative_velocity": {
                "kilometers_per_second": "4.5618351642",
                "kilometers_per_hour": "16422.6065910878",
                "miles_per_hour": "10204.369078779"
            },
            "miss_distance": {
                "astronomical": "0.0154145697",
                "lunar": "5.9962676133",
                "kilometers": "2305986.794086539",
                "miles": "1432873.7506066782"
            },
            "orbiting_body": "Earth"
        }
    ],
    "orbital_data": {
        "orbit_id": "5",
        "orbit_determination_date": "2017-04-06 08:55:12",
        "first_observation_date": "2010-12-14",
        "last_observation_date": "2010-12-14",
        "data_arc_in_days": null,
        "observations_used": 16,
        "orbit_uncertainty": "9",
        "minimum_orbit_intersection": ".0141732",
        "jupiter_tisserand_invariant": "4.526",
        "epoch_osculation": "2455544.5",
        "eccentricity": ".3249596392019617",
        "semi_major_axis": "1.478389102071443",
        "inclination": "3.634372739245781",
        "ascending_node_longitude": "261.0881319881543",
        "orbital_period": "656.5707869654967",
        "perihelion_distance": ".9979723128621947",
        "perihelion_argument": "184.920508439914",
        "aphelion_distance": "1.958805891280691",
        "perihelion_time": "2455548.915640637847",
        "mean_anomaly": "357.5788891903464",
        "mean_motion": ".548303407868371",
        "equinox": "J2000",
        "orbit_class": {
            "orbit_class_type": "APO",
            "orbit_class_description": "Near-Earth asteroid orbits which cross the Earth’s orbit similar to that of 1862 Apollo",
            "orbit_class_range": "a (semi-major axis) > 1.0 AU; q (perihelion) < 1.017 AU"
        }
    },
    "is_sentry_object": false
}